[{"OBJECT_NAME":"GEESAT-1 09","OBJECT_ID":"2022-058J","EPOCH":"2026-03-09T22:14:58.178400","MEAN_MOTION":14.996745,"ECCENTRICITY":0.0007116,"INCLINATION":49.9974,"RA_OF_ASC_NODE":293.7726,"ARG_OF_PERICENTER":137.6611,"MEAN_ANOMALY":222.4884,"EPHEMERIS_TYPE":0,"CLASSIFICATION_TYPE":"U","NORAD_CAT_ID":52793,"ELEMENT_SET_NO":999,"REV_AT_EPOCH":20534,"BSTAR":0.00045554765,"MEAN_MOTION_DOT":5.429e-5,"MEAN_MOTION_DDOT":0},{"OBJECT_NAME":"STARLINK-33860","OBJECT_ID":"2025-102M","EPOCH":"2026-03-09T13:22:46.780032","MEAN_MOTION":14.98331259,"ECCENTRICITY":0.0003148,"INCLINATION":70.0011,"RA_OF_ASC_NODE":114.7386,"ARG_OF_PERICENTER":270.8769,"MEAN_ANOMALY":89.2029,"EPHEMERIS_TYPE":0,"CLASSIFICATION_TYPE":"U","NORAD_CAT_ID":64033,"ELEMENT_SET_NO":999,"REV_AT_EPOCH":4594,"BSTAR":6.4188e-5,"MEAN_MOTION_DOT":6.73e-6,"MEAN_MOTION_DDOT":0}]
